{
"type": "FeatureCollection",
"name": "person2_fire_detections_sample",
"crs": { "type": "name", "properties": { "name": "urn:ogc:def:crs:OGC:1.3:CRS84" } },
"features": [
{ "type": "Feature", "properties": { "detection_id": "DET-62d3447e5d1d", "branch": "industrial", "facility_id": "IND-0008", "latitude": 21.38977, "longitude": 72.80866, "date": "2026-05-22", "acq_date": "2026-05-22", "acq_time": 2253, "frp": 117.1, "brightness": 338.9, "bright_t31": 307.9, "scan": 0.48, "track": 0.49, "confidence": "nominal", "satellite": "N", "instrument": "VIIRS", "daynight": "D", "type": 0, "baseline_or_population_reference": "71.25", "deviation_ratio": "1.6435087719298245", "anomaly_score": -0.038451914889529037, "fire_event_detected": true, "severity": "MEDIUM", "contributing_factors": [ "isolation_forest_outlier" ] }, "geometry": { "type": "Point", "coordinates": [ 72.80866, 21.38977 ] } },
{ "type": "Feature", "properties": { "detection_id": "DET-cb4f755a9b7c", "branch": "industrial", "facility_id": "IND-0014", "latitude": 21.73763, "longitude": 73.23103, "date": "2026-06-15", "acq_date": "2026-06-15", "acq_time": 703, "frp": 14.7, "brightness": 329.2, "bright_t31": 303.3, "scan": 0.4, "track": 0.77, "confidence": "nominal", "satellite": "N", "instrument": "VIIRS", "daynight": "D", "type": 0, "baseline_or_population_reference": "21.320833333333333", "deviation_ratio": "0.6894664842681258", "anomaly_score": -0.019195058585049551, "fire_event_detected": true, "severity": "MEDIUM", "contributing_factors": [ "isolation_forest_outlier" ] }, "geometry": { "type": "Point", "coordinates": [ 73.23103, 21.73763 ] } },
{ "type": "Feature", "properties": { "detection_id": "DET-cd84fd61557e", "branch": "industrial", "facility_id": "IND-0000", "latitude": 22.10029, "longitude": 73.16958, "date": "2026-03-16", "acq_date": "2026-03-16", "acq_time": 2048, "frp": 31.6, "brightness": 342.6, "bright_t31": 306.0, "scan": 0.76, "track": 0.54, "confidence": "nominal", "satellite": "N", "instrument": "VIIRS", "daynight": "N", "type": 0, "baseline_or_population_reference": "46.7875", "deviation_ratio": "0.6753940689286668", "anomaly_score": -0.0032339814705121261, "fire_event_detected": true, "severity": "MEDIUM", "contributing_factors": [ "isolation_forest_outlier" ] }, "geometry": { "type": "Point", "coordinates": [ 73.16958, 22.10029 ] } },
{ "type": "Feature", "properties": { "detection_id": "DET-6c27dc91796b", "branch": "industrial", "facility_id": "IND-0020", "latitude": 22.0801, "longitude": 72.79126, "date": "2026-03-23", "acq_date": "2026-03-23", "acq_time": 2123, "frp": 34.3, "brightness": 320.7, "bright_t31": 299.0, "scan": 0.93, "track": 0.39, "confidence": "high", "satellite": "N", "instrument": "VIIRS", "daynight": "D", "type": 0, "baseline_or_population_reference": "29.6", "deviation_ratio": "1.1587837837837835", "anomaly_score": -0.0021804100239314339, "fire_event_detected": true, "severity": "MEDIUM", "contributing_factors": [ "isolation_forest_outlier", "spatial_spread" ] }, "geometry": { "type": "Point", "coordinates": [ 72.79126, 22.0801 ] } },
{ "type": "Feature", "properties": { "detection_id": "DET-0b1e801b03e8", "branch": "industrial", "facility_id": "IND-0004", "latitude": 21.35422, "longitude": 72.9769, "date": "2026-03-10", "acq_date": "2026-03-10", "acq_time": 2059, "frp": 20.7, "brightness": 315.5, "bright_t31": 293.1, "scan": 0.89, "track": 0.44, "confidence": "nominal", "satellite": "N", "instrument": "VIIRS", "daynight": "N", "type": 0, "baseline_or_population_reference": "", "deviation_ratio": "", "anomaly_score": -0.015289205913131099, "fire_event_detected": true, "severity": "MEDIUM", "contributing_factors": [ "isolation_forest_outlier" ] }, "geometry": { "type": "Point", "coordinates": [ 72.9769, 21.35422 ] } },
{ "type": "Feature", "properties": { "detection_id": "DET-2e246cadc46d", "branch": "industrial", "facility_id": "IND-0022", "latitude": 22.3147, "longitude": 73.19954, "date": "2026-04-27", "acq_date": "2026-04-27", "acq_time": 259, "frp": 14.8, "brightness": 319.1, "bright_t31": 296.4, "scan": 1.13, "track": 0.73, "confidence": "nominal", "satellite": "N", "instrument": "VIIRS", "daynight": "D", "type": 0, "baseline_or_population_reference": "10.875", "deviation_ratio": "1.360919540229885", "anomaly_score": -0.029297216553504368, "fire_event_detected": true, "severity": "MEDIUM", "contributing_factors": [ "isolation_forest_outlier" ] }, "geometry": { "type": "Point", "coordinates": [ 73.19954, 22.3147 ] } },
{ "type": "Feature", "properties": { "detection_id": "DET-0c214eedf415", "branch": "industrial", "facility_id": "IND-0004", "latitude": 21.35673, "longitude": 72.97953, "date": "2026-07-22", "acq_date": "2026-07-22", "acq_time": 1246, "frp": 32.9, "brightness": 341.1, "bright_t31": 306.4, "scan": 1.16, "track": 0.42, "confidence": "nominal", "satellite": "N", "instrument": "VIIRS", "daynight": "D", "type": 0, "baseline_or_population_reference": "20.666666666666668", "deviation_ratio": "1.5919354838709676", "anomaly_score": -0.080247393457470007, "fire_event_detected": true, "severity": "HIGH", "contributing_factors": [ "frp_spike", "isolation_forest_outlier" ] }, "geometry": { "type": "Point", "coordinates": [ 72.97953, 21.35673 ] } },
{ "type": "Feature", "properties": { "detection_id": "DET-5487edd1596c", "branch": "industrial", "facility_id": "IND-0000", "latitude": 22.10028, "longitude": 73.16953, "date": "2026-07-14", "acq_date": "2026-07-14", "acq_time": 720, "frp": 17.5, "brightness": 339.6, "bright_t31": 286.7, "scan": 0.98, "track": 0.89, "confidence": "nominal", "satellite": "N", "instrument": "VIIRS", "daynight": "D", "type": 0, "baseline_or_population_reference": "35.58333333333333", "deviation_ratio": "0.49180327868852464", "anomaly_score": -0.0077281197124500212, "fire_event_detected": true, "severity": "MEDIUM", "contributing_factors": [ "isolation_forest_outlier" ] }, "geometry": { "type": "Point", "coordinates": [ 73.16953, 22.10028 ] } },
{ "type": "Feature", "properties": { "detection_id": "DET-cbcb8579e154", "branch": "industrial", "facility_id": "IND-0020", "latitude": 22.08215, "longitude": 72.7904, "date": "2026-06-06", "acq_date": "2026-06-06", "acq_time": 748, "frp": 599.5, "brightness": 483.6, "bright_t31": 343.5, "scan": 0.86, "track": 0.52, "confidence": "high", "satellite": "N", "instrument": "VIIRS", "daynight": "N", "type": 0, "baseline_or_population_reference": "27.4875", "deviation_ratio": "21.809913597089587", "anomaly_score": -0.33679749932817971, "fire_event_detected": true, "severity": "HIGH", "contributing_factors": [ "frp_spike", "hotspot_count_increase", "isolation_forest_outlier", "spatial_spread" ] }, "geometry": { "type": "Point", "coordinates": [ 72.7904, 22.08215 ] } },
{ "type": "Feature", "properties": { "detection_id": "DET-f4b9a6f69ebd", "branch": "industrial", "facility_id": "IND-0007", "latitude": 22.11748, "longitude": 72.98409, "date": "2026-08-10", "acq_date": "2026-08-10", "acq_time": 414, "frp": 31.3, "brightness": 321.8, "bright_t31": 292.8, "scan": 0.92, "track": 0.68, "confidence": "high", "satellite": "N", "instrument": "VIIRS", "daynight": "N", "type": 0, "baseline_or_population_reference": "9.6", "deviation_ratio": "3.260416666666667", "anomaly_score": -0.077853991599815098, "fire_event_detected": true, "severity": "MEDIUM", "contributing_factors": [ "isolation_forest_outlier" ] }, "geometry": { "type": "Point", "coordinates": [ 72.98409, 22.11748 ] } },
{ "type": "Feature", "properties": { "detection_id": "DET-b18a681001a4", "branch": "industrial", "facility_id": "IND-0000", "latitude": 22.0986, "longitude": 73.17086, "date": "2026-03-16", "acq_date": "2026-03-16", "acq_time": 1919, "frp": 41.5, "brightness": 312.8, "bright_t31": 285.2, "scan": 0.43, "track": 0.75, "confidence": "high", "satellite": "N", "instrument": "VIIRS", "daynight": "D", "type": 0, "baseline_or_population_reference": "46.7875", "deviation_ratio": "0.88698904621961", "anomaly_score": -0.0032339814705121261, "fire_event_detected": true, "severity": "MEDIUM", "contributing_factors": [ "isolation_forest_outlier" ] }, "geometry": { "type": "Point", "coordinates": [ 73.17086, 22.0986 ] } },
{ "type": "Feature", "properties": { "detection_id": "DET-f66cb6176e6a", "branch": "industrial", "facility_id": "IND-0009", "latitude": 21.74745, "longitude": 73.11941, "date": "2026-05-12", "acq_date": "2026-05-12", "acq_time": 2318, "frp": 67.4, "brightness": 357.8, "bright_t31": 296.4, "scan": 0.5, "track": 0.76, "confidence": "nominal", "satellite": "N", "instrument": "VIIRS", "daynight": "D", "type": 0, "baseline_or_population_reference": "54.099999999999994", "deviation_ratio": "1.245841035120148", "anomaly_score": -0.003204916176542727, "fire_event_detected": true, "severity": "MEDIUM", "contributing_factors": [ "isolation_forest_outlier", "spatial_spread" ] }, "geometry": { "type": "Point", "coordinates": [ 73.11941, 21.74745 ] } },
{ "type": "Feature", "properties": { "detection_id": "DET-c39479374c2e", "branch": "industrial", "facility_id": "IND-0027", "latitude": 21.29735, "longitude": 73.04666, "date": "2026-03-26", "acq_date": "2026-03-26", "acq_time": 717, "frp": 49.6, "brightness": 337.9, "bright_t31": 298.6, "scan": 0.41, "track": 0.6, "confidence": "nominal", "satellite": "N", "instrument": "VIIRS", "daynight": "D", "type": 0, "baseline_or_population_reference": "0.0", "deviation_ratio": "", "anomaly_score": 0.098262967381257893, "fire_event_detected": true, "severity": "MEDIUM", "contributing_factors": [ "hotspot_count_increase", "spatial_spread" ] }, "geometry": { "type": "Point", "coordinates": [ 73.04666, 21.29735 ] } },
{ "type": "Feature", "properties": { "detection_id": "DET-c82e1b942847", "branch": "industrial", "facility_id": "IND-0016", "latitude": 21.86418, "longitude": 72.922, "date": "2026-03-15", "acq_date": "2026-03-15", "acq_time": 939, "frp": 84.5, "brightness": 343.5, "bright_t31": 288.2, "scan": 0.68, "track": 0.5, "confidence": "nominal", "satellite": "N", "instrument": "VIIRS", "daynight": "D", "type": 0, "baseline_or_population_reference": "45.2", "deviation_ratio": "1.8694690265486724", "anomaly_score": -0.050444721672361137, "fire_event_detected": true, "severity": "MEDIUM", "contributing_factors": [ "isolation_forest_outlier", "spatial_spread" ] }, "geometry": { "type": "Point", "coordinates": [ 72.922, 21.86418 ] } },
{ "type": "Feature", "properties": { "detection_id": "DET-db1608f0c6e7", "branch": "industrial", "facility_id": "IND-0027", "latitude": 21.29999, "longitude": 73.04502, "date": "2026-08-23", "acq_date": "2026-08-23", "acq_time": 945, "frp": 81.5, "brightness": 313.5, "bright_t31": 281.2, "scan": 0.61, "track": 0.5, "confidence": "high", "satellite": "N", "instrument": "VIIRS", "daynight": "N", "type": 0, "baseline_or_population_reference": "0.0", "deviation_ratio": "", "anomaly_score": 0.062109258868466077, "fire_event_detected": true, "severity": "MEDIUM", "contributing_factors": [ "hotspot_count_increase", "spatial_spread" ] }, "geometry": { "type": "Point", "coordinates": [ 73.04502, 21.29999 ] } },
{ "type": "Feature", "properties": { "detection_id": "DET-0bd42f87b8d6", "branch": "industrial", "facility_id": "IND-0020", "latitude": 22.08357, "longitude": 72.78885, "date": "2026-06-06", "acq_date": "2026-06-06", "acq_time": 456, "frp": 24.8, "brightness": 326.7, "bright_t31": 289.6, "scan": 0.7, "track": 0.59, "confidence": "nominal", "satellite": "N", "instrument": "VIIRS", "daynight": "N", "type": 0, "baseline_or_population_reference": "27.4875", "deviation_ratio": "0.9022282855843565", "anomaly_score": -0.33679749932817971, "fire_event_detected": true, "severity": "HIGH", "contributing_factors": [ "frp_spike", "hotspot_count_increase", "isolation_forest_outlier", "spatial_spread" ] }, "geometry": { "type": "Point", "coordinates": [ 72.78885, 22.08357 ] } },
{ "type": "Feature", "properties": { "detection_id": "DET-2e4538ea823d", "branch": "industrial", "facility_id": "IND-0026", "latitude": 21.76593, "longitude": 72.97002, "date": "2026-05-25", "acq_date": "2026-05-25", "acq_time": 916, "frp": 30.8, "brightness": 346.3, "bright_t31": 287.4, "scan": 1.19, "track": 0.9, "confidence": "high", "satellite": "N", "instrument": "VIIRS", "daynight": "D", "type": 0, "baseline_or_population_reference": "45.44583333333333", "deviation_ratio": "0.6777298982304942", "anomaly_score": -5.0711916248613598e-05, "fire_event_detected": true, "severity": "MEDIUM", "contributing_factors": [ "isolation_forest_outlier" ] }, "geometry": { "type": "Point", "coordinates": [ 72.97002, 21.76593 ] } },
{ "type": "Feature", "properties": { "detection_id": "DET-0f16880dc136", "branch": "industrial", "facility_id": "IND-0023", "latitude": 22.23322, "longitude": 73.11264, "date": "2026-06-01", "acq_date": "2026-06-01", "acq_time": 1755, "frp": 60.9, "brightness": 323.9, "bright_t31": 293.6, "scan": 0.94, "track": 0.44, "confidence": "nominal", "satellite": "N", "instrument": "VIIRS", "daynight": "N", "type": 0, "baseline_or_population_reference": "46.9875", "deviation_ratio": "1.2960893854748603", "anomaly_score": -0.018290622233481213, "fire_event_detected": true, "severity": "MEDIUM", "contributing_factors": [ "isolation_forest_outlier" ] }, "geometry": { "type": "Point", "coordinates": [ 73.11264, 22.23322 ] } },
{ "type": "Feature", "properties": { "detection_id": "DET-6e7e2ceedd41", "branch": "industrial", "facility_id": "IND-0026", "latitude": 21.76197, "longitude": 72.97447, "date": "2026-06-24", "acq_date": "2026-06-24", "acq_time": 2220, "frp": 75.8, "brightness": 320.9, "bright_t31": 292.4, "scan": 0.49, "track": 0.62, "confidence": "high", "satellite": "N", "instrument": "VIIRS", "daynight": "N", "type": 0, "baseline_or_population_reference": "39.1375", "deviation_ratio": "1.9367614180772914", "anomaly_score": -0.0021104373283408195, "fire_event_detected": true, "severity": "MEDIUM", "contributing_factors": [ "isolation_forest_outlier", "spatial_spread" ] }, "geometry": { "type": "Point", "coordinates": [ 72.97447, 21.76197 ] } },
{ "type": "Feature", "properties": { "detection_id": "DET-f8c1401cd2a7", "branch": "industrial", "facility_id": "IND-0009", "latitude": 21.74493, "longitude": 73.12077, "date": "2026-05-07", "acq_date": "2026-05-07", "acq_time": 50, "frp": 78.2, "brightness": 335.6, "bright_t31": 297.6, "scan": 0.54, "track": 0.88, "confidence": "nominal", "satellite": "N", "instrument": "VIIRS", "daynight": "D", "type": 0, "baseline_or_population_reference": "54.4625", "deviation_ratio": "1.435850355749369", "anomaly_score": -0.050739482340532271, "fire_event_detected": true, "severity": "MEDIUM", "contributing_factors": [ "isolation_forest_outlier" ] }, "geometry": { "type": "Point", "coordinates": [ 73.12077, 21.74493 ] } }
]
}
